IRIDIUM 33 DEB          
1 35051U 97051NX  25151.11173056  .00002344  00000+0  64569-3 0  9999
2 35051  86.3227  94.0469 0010066  34.6090 325.5766 14.46516118842477
IRIDIUM 33 DEB          
1 35052U 97051NY  25150.60349488  .00000645  00000+0  20593-3 0  9998
2 35052  86.3290 104.5530 0012171  18.0290 342.1337 14.38195945844564
IRIDIUM 33 DEB          
1 35080U 97051PF  25149.71269602  .00042686  00000+0  75789-2 0  9995
2 35080  86.2146 144.5408 0087969 138.1644 222.6337 14.64463584667882
IRIDIUM 33 DEB          
1 35297U 97051PM  25149.31941713  .00002079  00000+0  60005-3 0  9999
2 35297  86.3934 146.9324 0017166  76.6041 283.7073 14.44133008841826
IRIDIUM 33 DEB          
1 35299U 97051PP  25151.16376568  .00004837  00000+0  15135-2 0  9994
2 35299  86.2892 118.2176 0058058  29.3055 343.1491 14.39564918836306
IRIDIUM 33 DEB          
1 35480U 97051QA  25149.31563534  .00002543  00000+0  66921-3 0  9993
2 35480  86.3546 110.4265 0015825  51.4970 308.7650 14.48684632841727
IRIDIUM 33 DEB          
1 35484U 97051QE  25149.54469061  .00024677  00000+0  27191-2 0  9999
2 35484  86.3646  83.9555 0027161 111.5027 248.9098 14.87143294590768
IRIDIUM 33 DEB          
1 35488U 97051QJ  25151.08761587  .00007737  00000+0  10406-2 0  9992
2 35488  86.3279  30.6625 0030131  11.1073 349.0806 14.78817211853790
IRIDIUM 33 DEB          
1 35616U 97051QN  25151.20391779  .00009526  00000+0  13655-2 0  9998
2 35616  86.3553  74.5293 0012602 133.3845 226.8426 14.76393281849062
IRIDIUM 33 DEB          
1 35618U 97051QQ  25150.53148441  .00001782  00000+0  43981-3 0  9993
2 35618  86.3422  79.2123 0027671 319.9595  39.9570 14.51383792625478
IRIDIUM 33 DEB          
1 35620U 97051QS  25151.15733959  .00010926  00000+0  35685-2 0  9990
2 35620  86.3879 299.4224 0159421 171.6372 188.7540 14.31486672816493
IRIDIUM 33 DEB          
1 35622U 97051QU  25150.34580883  .00025190  00000+0  29334-2 0  9991
2 35622  86.2119 358.3246 0011721 262.3523 271.3711 14.85099971844318
IRIDIUM 33 DEB          
1 35628U 97051RA  25150.56013830  .00006669  00000+0  12605-2 0  9997
2 35628  86.3563  96.2963 0010025 289.2018  70.8109 14.64263482835731
IRIDIUM 33 DEB          
1 35631U 97051RD  25150.65128770  .00001213  00000+0  32866-3 0  9993
2 35631  86.3654 105.3817 0019152  58.8805 117.9230 14.46810086843612
IRIDIUM 33 DEB          
1 35680U 97051RJ  25144.87857495  .00001927  00000+0  82045-3 0  9993
2 35680  86.1022 110.6473 0158267 199.5753 189.8081 14.18223153578389
IRIDIUM 33 DEB          
1 35744U 97051RX  25150.72719744  .00005442  00000+0  94057-3 0  9991
2 35744  86.3307  53.7153 0023532 148.7217 211.5404 14.68060684844535
IRIDIUM 33 DEB          
1 35797U 97051SF  25148.47531267  .00010081  00000+0  14176-2 0  9998
2 35797  86.3389  60.5368 0015761 127.8632 232.4016 14.77185368844090
IRIDIUM 33 DEB          
1 35806U 97051SQ  25138.19823412  .00006851  00000+0  15876-2 0  9991
2 35806  86.3424 112.2547 0016931  59.4322 300.8553 14.54874194832901
IRIDIUM 33 DEB          
1 35809U 97051ST  25150.47964679  .00008436  00000+0  13610-2 0  9995
2 35809  86.3293  64.3098 0012004 198.5645 161.5135 14.71283780839185
IRIDIUM 33 DEB          
1 35846U 97051SW  25145.96175243  .00001461  00000+0  43655-3 0  9999
2 35846  86.3760 144.4350 0020274 115.6172 244.7126 14.42229050684347
IRIDIUM 33 DEB          
1 35848U 97051SY  25147.16774955  .00007514  00000+0  11488-2 0  9993
2 35848  86.3902 105.4558 0009222 166.2452 193.9018 14.73627691637471
IRIDIUM 33 DEB          
1 35850U 97051TA  25149.52399478  .00011045  00000+0  16741-2 0  9992
2 35850  86.3504  73.5275 0011461 155.8681 204.3076 14.74013923684481
IRIDIUM 33 DEB          
1 35911U 97051TU  25150.52148463  .00076467  00000+0  65443-2 0  9990
2 35911  86.2066  72.6373 0034853  13.8978 346.3203 14.96758942841410
IRIDIUM 33 DEB          
1 35915U 97051TY  25150.48554794  .00009972  00000+0  14657-2 0  9995
2 35915  86.3450  72.1459 0013636 154.9446 205.2437 14.75311688 51880
IRIDIUM 33 DEB          
1 35918U 97051UB  25150.27528868  .00004191  00000+0  10852-2 0  9999
2 35918  86.4046 159.9452 0029572 107.9590 266.6950 14.49399187823605
IRIDIUM 33 DEB          
1 35929U 97051UN  25150.01297773  .00021771  00000+0  21633-2 0  9993
2 35929  86.3388  44.8149 0019461  20.3762 339.8238 14.91457605848397
IRIDIUM 33 DEB          
1 36011U 97051US  25144.71846361  .00001261  00000+0  38899-3 0  9994
2 36011  86.3362 122.1424 0020161 159.0996 321.3715 14.40565869616313
IRIDIUM 33 DEB          
1 36012U 97051UT  25151.05815356  .00006742  00000+0  27941-2 0  9994
2 36012  86.4441  25.9367 0228547 161.7189 199.2386 14.13301568808639
IRIDIUM 33 DEB          
1 36028U 97051VK  25150.44255404  .00017937  00000+0  19927-2 0  9998
2 36028  86.3265  38.2002 0022508  33.4615 326.8026 14.86916412842019
IRIDIUM 33 DEB          
1 36080U 97051VM  25151.10476809  .00002441  00000+0  68534-3 0  9997
2 36080  86.3188  93.1349 0019686  93.0925 267.2530 14.45507715827528
IRIDIUM 33 DEB          
1 36083U 97051VQ  25141.20758991  .00001584  00000+0  47259-3 0  9993
2 36083  86.3412 122.5760 0026624 180.5837 179.5337 14.42279247824866
IRIDIUM 33 DEB          
1 36390U 97051VU  25146.40616795  .00004755  00000+0  77164-3 0  9997
2 36390  86.2977  30.8800 0033724 136.9543 223.4320 14.70603936633154
IRIDIUM 33 DEB          
1 36483U 97051VZ  25149.23504660  .00002047  00000+0  58175-3 0  9994
2 36483  86.3860 136.9659 0011973  72.6867 287.5644 14.44929428622938
IRIDIUM 33 DEB          
1 36490U 97051WG  25150.62542805  .00009716  00000+0  15694-2 0  9998
2 36490  86.3658  98.5047 0005537  54.9421 305.2314 14.71276119835977
IRIDIUM 33 DEB          
1 36493U 97051WK  25150.14720934  .00007155  00000+0  14143-2 0  9992
2 36493  86.3566  98.7821 0009149 314.8375  45.2092 14.62252637716431
IRIDIUM 33 DEB          
1 37548U 97051XH  25150.65402792  .00003947  00000+0  10236-2 0  9993
2 37548  86.3516 128.5532 0027865 125.7627 234.6175 14.49333665626907
IRIDIUM 33 DEB          
1 37550U 97051XK  25150.62031769  .00006686  00000+0  12729-2 0  9997
2 37550  86.3774 110.5377 0006112  77.6162 282.5734 14.63956580834610
IRIDIUM 33 DEB          
1 37562U 97051XX  25151.22300064  .00004856  00000+0  11353-2 0  9993
2 37562  86.3751 128.6821 0027590  50.4769   9.8300 14.54258844834838
IRIDIUM 33 DEB          
1 37565U 97051YA  25145.16186473  .00001885  00000+0  47665-3 0  9993
2 37565  86.3464  97.3042 0015199  45.2680 314.9759 14.50434590629149
IRIDIUM 33 DEB          
1 38017U 97051YD  25149.56191715  .00013825  00000+0  40744-2 0  9996
2 38017  86.3378 251.1530 0115595  37.9120 323.0146 14.39684399585587
IRIDIUM 33 DEB          
1 38022U 97051YJ  25149.61485600  .00004358  00000+0  13700-2 0  9990
2 38022  86.2693 102.6300 0045774 339.6874  20.2502 14.39689695663567
IRIDIUM 33 DEB          
1 38028U 97051YQ  25150.53990135  .00001187  00000+0  32921-3 0  9997
2 38028  86.3218  85.4963 0031102  58.1076 302.3145 14.45504755626608
IRIDIUM 33 DEB          
1 38228U 97051ZC  25150.22187110  .00000731  00000+0  28661-3 0  9996
2 38228  86.2944 131.9868 0066586 103.6299 273.6016 14.26853582823489
IRIDIUM 33 DEB          
1 38241U 97051ZR  25149.06155894  .00002760  00000+0  65846-3 0  9995
2 38241  86.3213  77.6699 0004756  37.3692 322.7844 14.53410662573286
IRIDIUM 33 DEB          
1 38474U 97051AAB 25150.56792280  .00002982  00000+0  76814-3 0  9999
2 38474  86.3408  95.4660 0027900  29.3392 330.9371 14.49576000835450
IRIDIUM 33 DEB          
1 39777U 97051AAJ 25150.29089388  .00016153  00000+0  38282-2 0  9995
2 39777  85.9593 270.0615 0065858 128.5636 232.1496 14.52593816573307
IRIDIUM 33 DEB          
1 39778U 97051AAK 25150.66782538  .00003830  00000+0  93441-3 0  9991
2 39778  86.3780 128.2023 0006675 345.5072  14.5941 14.52450792578458
IRIDIUM 33 DEB          
1 39781U 97051AAN 25147.27151017  .00003887  00000+0  16270-2 0  9996
2 39781  86.3742 339.7894 0180445 182.0072 356.1139 14.17437594 52791
IRIDIUM 33 DEB          
1 39783U 97051AAQ 25147.85075368  .00030779  00000+0  29697-2 0  9993
2 39783  86.1493 354.8422 0021425 151.1515 222.8646 14.92564654578099
IRIDIUM 33 DEB          
1 40996U 97051ABJ 25146.80744395  .00015463  00000+0  18212-2 0  9992
2 40996  86.3548  93.7127 0013616  52.0321 337.2912 14.84644209595135
IRIDIUM 33 DEB          
1 40998U 97051ABL 25144.31392686  .00001493  00000+0  42902-3 0  9992
2 40998  86.3832 140.0580 0009152  43.1989  16.4883 14.44246368 37597
IRIDIUM 33 DEB          
1 46435U 97051ABN 25148.13672426  .00006693  00000+0  22241-2 0  9991
2 46435  86.2758 278.7273 0219183 195.0373 342.5722 14.24879065 50835
IRIDIUM 33 DEB          
1 46734U 97051ABR 25148.10070432  .00002446  00000+0  75765-3 0  9991
2 46734  86.2624  89.9492 0038235 267.2237 110.0807 14.40446345601509
IRIDIUM 33 DEB          
1 46965U 97051ABX 25150.52881258  .00003143  00000+0  66832-3 0  9992
2 46965  86.3366  67.5541 0017168 273.9121 266.0056 14.58699322594068
IRIDIUM 33 DEB          
1 46972U 97051ACE 25150.66673904  .00002217  00000+0  57142-3 0  9997
2 46972  86.3860 123.7424 0011511  52.9766  74.2547 14.49655831587317
IRIDIUM 33 DEB          
1 46974U 97051ACG 25150.85852657  .00008703  00000+0  25857-2 0  9997
2 46974  86.3061 190.2703 0104341 111.7400 249.4944 14.39979282546864
IRIDIUM 33 DEB          
1 46979U 97051ACM 25148.24479410  .00019370  00000+0  28088-2 0  9995
2 46979  86.3409 139.4162 0033220 201.3997 158.5835 14.75569850324918
